{
  "type": "FeatureCollection",
  "features": [
    {
      "type": "Feature",
      "properties": {
        "norad_id": 33844,
        "name": "COSMOS 2251 DEB",
        "group": "cosmos-2251-debris",
        "lat": -20.022475002971856,
        "lon": -142.24863097080203,
        "alt_km": 813.4842883546235,
        "timestamp": "2025-12-24T05:51:20.002303+00:00",
        "meta_object_name": "COSMOS 2251 DEB",
        "meta_object_id": "1993-036CM",
        "meta_epoch": "2025-12-23T19:25:34.154112",
        "meta_mean_motion": 14.33737167,
        "meta_eccentricity": 0.00471715,
        "meta_inclination": 74.0665,
        "meta_ra_of_asc_node": 32.5689,
        "meta_arg_of_pericenter": 50.9532,
        "meta_mean_anomaly": 67.4785,
        "meta_ephemeris_type": 0,
        "meta_classification_type": "U",
        "meta_norad_cat_id": 33844,
        "meta_element_set_no": 999,
        "meta_rev_at_epoch": 87884,
        "meta_bstar": 0.0003179093,
        "meta_mean_motion_dot": 8.68e-06,
        "meta_mean_motion_ddot": 0,
        "tle_line1": "1 33844U 93036CM  25357.80942308  .00000868  00000+0  31791-3 0  9994",
        "tle_line2": "2 33844  74.0665  32.5689 0047171  50.9532  67.4785 14.33737167878843"
      },
      "geometry": {
        "type": "Point",
        "coordinates": [
          -142.24863097080203,
          -20.022475002971856
        ]
      }
    },
    {
      "type": "Feature",
      "properties": {
        "norad_id": 33848,
        "name": "COSMOS 2251 DEB",
        "group": "cosmos-2251-debris",
        "lat": 74.00950235166567,
        "lon": 63.88989431646052,
        "alt_km": 722.7335198037026,
        "timestamp": "2025-12-24T05:51:20.002313+00:00",
        "meta_object_name": "COSMOS 2251 DEB",
        "meta_object_id": "1993-036CR",
        "meta_epoch": "2025-12-23T16:58:54.287328",
        "meta_mean_motion": 14.44133736,
        "meta_eccentricity": 0.00418105,
        "meta_inclination": 74.0321,
        "meta_ra_of_asc_node": 337.2342,
        "meta_arg_of_pericenter": 29.8541,
        "meta_mean_anomaly": 151.4841,
        "meta_ephemeris_type": 0,
        "meta_classification_type": "U",
        "meta_norad_cat_id": 33848,
        "meta_element_set_no": 999,
        "meta_rev_at_epoch": 87989,
        "meta_bstar": 0.0011234213,
        "meta_mean_motion_dot": 3.867e-05,
        "meta_mean_motion_ddot": 0,
        "tle_line1": "1 33848U 93036CR  25357.70757277  .00003867  00000+0  11234-2 0  9997",
        "tle_line2": "2 33848  74.0321 337.2342 0041810  29.8541 151.4841 14.44133736879893"
      },
      "geometry": {
        "type": "Point",
        "coordinates": [
          63.88989431646052,
          74.00950235166567
        ]
      }
    },
    {
      "type": "Feature",
      "properties": {
        "norad_id": 33892,
        "name": "COSMOS 2251 DEB",
        "group": "cosmos-2251-debris",
        "lat": -53.247695110836005,
        "lon": -76.02289443426503,
        "alt_km": 867.9146846850299,
        "timestamp": "2025-12-24T05:51:20.002323+00:00",
        "meta_object_name": "COSMOS 2251 DEB",
        "meta_object_id": "1993-036CV",
        "meta_epoch": "2025-12-23T07:05:37.567680",
        "meta_mean_motion": 14.23371664,
        "meta_eccentricity": 0.01122305,
        "meta_inclination": 73.8024,
        "meta_ra_of_asc_node": 82.8009,
        "meta_arg_of_pericenter": 111.9648,
        "meta_mean_anomaly": 305.6008,
        "meta_ephemeris_type": 0,
        "meta_classification_type": "U",
        "meta_norad_cat_id": 33892,
        "meta_element_set_no": 999,
        "meta_rev_at_epoch": 87105,
        "meta_bstar": 0.00057999949,
        "meta_mean_motion_dot": 1.378e-05,
        "meta_mean_motion_ddot": 0,
        "tle_line1": "1 33892U 93036CV  25357.29557370  .00001378  00000+0  58000-3 0  9990",
        "tle_line2": "2 33892  73.8024  82.8009 0112230 111.9648 305.6008 14.23371664871057"
      },
      "geometry": {
        "type": "Point",
        "coordinates": [
          -76.02289443426503,
          -53.247695110836005
        ]
      }
    },
    {
      "type": "Feature",
      "properties": {
        "norad_id": 33894,
        "name": "COSMOS 2251 DEB",
        "group": "cosmos-2251-debris",
        "lat": -59.33728314113125,
        "lon": -179.29086187273023,
        "alt_km": 750.7698342571348,
        "timestamp": "2025-12-24T05:51:20.002334+00:00",
        "meta_object_name": "COSMOS 2251 DEB",
        "meta_object_id": "1993-036CX",
        "meta_epoch": "2025-12-23T08:36:16.381152",
        "meta_mean_motion": 13.21325224,
        "meta_eccentricity": 0.05788054,
        "meta_inclination": 73.7666,
        "meta_ra_of_asc_node": 332.6471,
        "meta_arg_of_pericenter": 250.6671,
        "meta_mean_anomaly": 103.0989,
        "meta_ephemeris_type": 0,
        "meta_classification_type": "U",
        "meta_norad_cat_id": 33894,
        "meta_element_set_no": 999,
        "meta_rev_at_epoch": 80848,
        "meta_bstar": 0.00065331704,
        "meta_mean_motion_dot": 6.26e-06,
        "meta_mean_motion_ddot": 0,
        "tle_line1": "1 33894U 93036CX  25357.35852293  .00000626  00000+0  65332-3 0  9992",
        "tle_line2": "2 33894  73.7666 332.6471 0578805 250.6671 103.0989 13.21325224808483"
      },
      "geometry": {
        "type": "Point",
        "coordinates": [
          -179.29086187273023,
          -59.33728314113125
        ]
      }
    },
    {
      "type": "Feature",
      "properties": {
        "norad_id": 33896,
        "name": "COSMOS 2251 DEB",
        "group": "cosmos-2251-debris",
        "lat": 50.45716054187494,
        "lon": -64.86731600134502,
        "alt_km": 915.0020578822159,
        "timestamp": "2025-12-24T05:51:20.002344+00:00",
        "meta_object_name": "COSMOS 2251 DEB",
        "meta_object_id": "1993-036CZ",
        "meta_epoch": "2025-12-23T19:26:24.256608",
        "meta_mean_motion": 14.19062722,
        "meta_eccentricity": 0.0127126,
        "meta_inclination": 73.7663,
        "meta_ra_of_asc_node": 136.585,
        "meta_arg_of_pericenter": 310.487,
        "meta_mean_anomaly": 119.758,
        "meta_ephemeris_type": 0,
        "meta_classification_type": "U",
        "meta_norad_cat_id": 33896,
        "meta_element_set_no": 999,
        "meta_rev_at_epoch": 86897,
        "meta_bstar": 0.00052827049,
        "meta_mean_motion_dot": 1.168e-05,
        "meta_mean_motion_ddot": 0,
        "tle_line1": "1 33896U 93036CZ  25357.81000297  .00001168  00000+0  52827-3 0  9991",
        "tle_line2": "2 33896  73.7663 136.5850 0127126 310.4870 119.7580 14.19062722868976"
      },
      "geometry": {
        "type": "Point",
        "coordinates": [
          -64.86731600134502,
          50.45716054187494
        ]
      }
    },
    {
      "type": "Feature",
      "properties": {
        "norad_id": 33899,
        "name": "COSMOS 2251 DEB",
        "group": "cosmos-2251-debris",
        "lat": 74.0258365803814,
        "lon": 156.49379419829992,
        "alt_km": 648.0841440712302,
        "timestamp": "2025-12-24T05:51:20.002354+00:00",
        "meta_object_name": "COSMOS 2251 DEB",
        "meta_object_id": "1993-036DC",
        "meta_epoch": "2025-12-23T11:28:17.893632",
        "meta_mean_motion": 14.61275441,
        "meta_eccentricity": 0.00560268,
        "meta_inclination": 74.0532,
        "meta_ra_of_asc_node": 65.2153,
        "meta_arg_of_pericenter": 124.7268,
        "meta_mean_anomaly": 258.4247,
        "meta_ephemeris_type": 0,
        "meta_classification_type": "U",
        "meta_norad_cat_id": 33899,
        "meta_element_set_no": 999,
        "meta_rev_at_epoch": 88996,
        "meta_bstar": 0.00081478627,
        "meta_mean_motion_dot": 4.083e-05,
        "meta_mean_motion_ddot": 0,
        "tle_line1": "1 33899U 93036DC  25357.47798488  .00004083  00000+0  81479-3 0  9996",
        "tle_line2": "2 33899  74.0532  65.2153 0056026 124.7268 258.4247 14.61275441889963"
      },
      "geometry": {
        "type": "Point",
        "coordinates": [
          156.49379419829992,
          74.0258365803814
        ]
      }
    },
    {
      "type": "Feature",
      "properties": {
        "norad_id": 33900,
        "name": "COSMOS 2251 DEB",
        "group": "cosmos-2251-debris",
        "lat": 6.878619543816612,
        "lon": -20.0756425641405,
        "alt_km": 716.0968827352317,
        "timestamp": "2025-12-24T05:51:20.002364+00:00",
        "meta_object_name": "COSMOS 2251 DEB",
        "meta_object_id": "1993-036DD",
        "meta_epoch": "2025-12-23T23:22:33.599136",
        "meta_mean_motion": 14.58384795,
        "meta_eccentricity": 0.00463861,
        "meta_inclination": 74.0183,
        "meta_ra_of_asc_node": 338.4573,
        "meta_arg_of_pericenter": 127.2681,
        "meta_mean_anomaly": 263.5944,
        "meta_ephemeris_type": 0,
        "meta_classification_type": "U",
        "meta_norad_cat_id": 33900,
        "meta_element_set_no": 999,
        "meta_rev_at_epoch": 89200,
        "meta_bstar": 0.00036964038,
        "meta_mean_motion_dot": 1.708e-05,
        "meta_mean_motion_ddot": 0,
        "tle_line1": "1 33900U 93036DD  25357.97399999  .00001708  00000+0  36964-3 0  9998",
        "tle_line2": "2 33900  74.0183 338.4573 0046386 127.2681 263.5944 14.58384795892003"
      },
      "geometry": {
        "type": "Point",
        "coordinates": [
          -20.0756425641405,
          6.878619543816612
        ]
      }
    }
  ]
}